[
    {
        "Altitude(m)": 559898.8158331474,
        "Argument of Periapsis(deg)": 0.013245982221427002,
        "Eccentricity": 0.0,
        "Inclination(deg)": 53.0,
        "Latitude(deg)": 53.14502864037704,
        "Longitude(deg)": -132.7618026361991,
        "Mean Anomaly(deg)": 89.27408573515518,
        "RAAN(deg)": 239.98028673705605,
        "Satellite Name": "Starlink Shell 1 1060",
        "Satellite Number": 1060,
        "Semi-Major Axis(m)": 6931778.249405717,
        "Time(s)": 380
    },
    {
        "Altitude(m)": 559900.2073086255,
        "Argument of Periapsis(deg)": 0.013594560700938237,
        "Eccentricity": 0.0,
        "Inclination(deg)": 53.0,
        "Latitude(deg)": 53.150826575160075,
        "Longitude(deg)": -131.76087657862675,
        "Mean Anomaly(deg)": 89.90091693871193,
        "RAAN(deg)": 239.97976796697853,
        "Satellite Name": "Starlink Shell 1 1060",
        "Satellite Number": 1060,
        "Semi-Major Axis(m)": 6931778.249405717,
        "Time(s)": 390
    },
    {
        "Altitude(m)": 559899.5297643358,
        "Argument of Periapsis(deg)": 0.013943139180449475,
        "Eccentricity": 0.0,
        "Inclination(deg)": 53.0,
        "Latitude(deg)": 53.14750775640517,
        "Longitude(deg)": -130.7598907311131,
        "Mean Anomaly(deg)": 90.52774814226858,
        "RAAN(deg)": 239.97924919690104,
        "Satellite Name": "Starlink Shell 1 1060",
        "Satellite Number": 1060,
        "Semi-Major Axis(m)": 6931778.249405717,
        "Time(s)": 400
    },
    {
        "Altitude(m)": 559896.7836430944,
        "Argument of Periapsis(deg)": 0.014291717659960712,
        "Eccentricity": 0.0,
        "Inclination(deg)": 53.0,
        "Latitude(deg)": 53.13507467007758,
        "Longitude(deg)": -129.75928574191147,
        "Mean Anomaly(deg)": 91.15457934582533,
        "RAAN(deg)": 239.97873042682363,
        "Satellite Name": "Starlink Shell 1 1060",
        "Satellite Number": 1060,
        "Semi-Major Axis(m)": 6931778.249405717,
        "Time(s)": 410
    },
    {
        "Altitude(m)": 559891.9706283824,
        "Argument of Periapsis(deg)": 0.014640296139471948,
        "Eccentricity": 0.0,
        "Inclination(deg)": 53.0,
        "Latitude(deg)": 53.11353661969475,
        "Longitude(deg)": -128.75950161546538,
        "Mean Anomaly(deg)": 91.781410549382,
        "RAAN(deg)": 239.97821165674614,
        "Satellite Name": "Starlink Shell 1 1060",
        "Satellite Number": 1060,
        "Semi-Major Axis(m)": 6931778.249405717,
        "Time(s)": 420
    },
    {
        "Altitude(m)": 559885.0936435036,
        "Argument of Periapsis(deg)": 0.014988874618983185,
        "Eccentricity": 0.0,
        "Inclination(deg)": 53.0,
        "Latitude(deg)": 53.08290969201887,
        "Longitude(deg)": -127.76097588774964,
        "Mean Anomaly(deg)": 92.40824175293875,
        "RAAN(deg)": 239.97769288666865,
        "Satellite Name": "Starlink Shell 1 1060",
        "Satellite Number": 1060,
        "Semi-Major Axis(m)": 6931778.249405717,
        "Time(s)": 430
    },
    {
        "Altitude(m)": 559876.156850172,
        "Argument of Periapsis(deg)": 0.015337453098494424,
        "Eccentricity": 0.0,
        "Inclination(deg)": 53.0,
        "Latitude(deg)": 53.04321669791893,
        "Longitude(deg)": -126.76414181984539,
        "Mean Anomaly(deg)": 93.0350729564955,
        "RAAN(deg)": 239.97717411659121,
        "Satellite Name": "Starlink Shell 1 1060",
        "Satellite Number": 1060,
        "Semi-Major Axis(m)": 6931778.249405717,
        "Time(s)": 440
    },
    {
        "Altitude(m)": 559865.1656464704,
        "Argument of Periapsis(deg)": 0.01568603157800566,
        "Eccentricity": 0.0,
        "Inclination(deg)": 53.0,
        "Latitude(deg)": 52.99448708891264,
        "Longitude(deg)": -125.7694281320935,
        "Mean Anomaly(deg)": 93.66190416005215,
        "RAAN(deg)": 239.97665534651372,
        "Satellite Name": "Starlink Shell 1 1060",
        "Satellite Number": 1060,
        "Semi-Major Axis(m)": 6931778.249405717,
        "Time(s)": 450
    },
    {
        "Altitude(m)": 559852.1266642261,
        "Argument of Periapsis(deg)": 0.0160346100575169,
        "Eccentricity": 0.0,
        "Inclination(deg)": 53.0,
        "Latitude(deg)": 52.93675685009789,
        "Longitude(deg)": -124.77725726218307,
        "Mean Anomaly(deg)": 94.2887353636089,
        "RAAN(deg)": 239.97613657643623,
        "Satellite Name": "Starlink Shell 1 1060",
        "Satellite Number": 1060,
        "Semi-Major Axis(m)": 6931778.249405717,
        "Time(s)": 460
    },
    {
        "Altitude(m)": 559837.047765771,
        "Argument of Periapsis(deg)": 0.016383188537028134,
        "Eccentricity": 0.0,
        "Inclination(deg)": 53.0,
        "Latitude(deg)": 52.87006837038229,
        "Longitude(deg)": -123.78804366864746,
        "Mean Anomaly(deg)": 94.91556656716558,
        "RAAN(deg)": 239.97561780635877,
        "Satellite Name": "Starlink Shell 1 1060",
        "Satellite Number": 1060,
        "Semi-Major Axis(m)": 6931778.249405717,
        "Time(s)": 470
    },
    {
        "Altitude(m)": 559819.938040117,
        "Argument of Periapsis(deg)": 0.01673176701653937,
        "Eccentricity": 0.0,
        "Inclination(deg)": 53.0,
        "Latitude(deg)": 52.794470291099486,
        "Longitude(deg)": -122.8021937006272,
        "Mean Anomaly(deg)": 95.54239777072233,
        "RAAN(deg)": 239.97509903628128,
        "Satellite Name": "Starlink Shell 1 1060",
        "Satellite Number": 1060,
        "Semi-Major Axis(m)": 6931778.249405717,
        "Time(s)": 480
    },
    {
        "Altitude(m)": 559800.8077985203,
        "Argument of Periapsis(deg)": 0.017080345496050607,
        "Eccentricity": 0.0,
        "Inclination(deg)": 53.0,
        "Latitude(deg)": 52.71001733425863,
        "Longitude(deg)": -121.82010401544976,
        "Mean Anomaly(deg)": 96.16922897427905,
        "RAAN(deg)": 239.97458026620382,
        "Satellite Name": "Starlink Shell 1 1060",
        "Satellite Number": 1060,
        "Semi-Major Axis(m)": 6931778.249405717,
        "Time(s)": 490
    },
    {
        "Altitude(m)": 559779.6685694407,
        "Argument of Periapsis(deg)": 0.017428923975561842,
        "Eccentricity": 0.0,
        "Inclination(deg)": 53.0,
        "Latitude(deg)": 52.61677011182539,
        "Longitude(deg)": -120.84216006340093,
        "Mean Anomaly(deg)": 96.79606017783573,
        "RAAN(deg)": 239.97406149612635,
        "Satellite Name": "Starlink Shell 1 1060",
        "Satellite Number": 1060,
        "Semi-Major Axis(m)": 6931778.249405717,
        "Time(s)": 500
    },
    {
        "Altitude(m)": 559756.5330929422,
        "Argument of Periapsis(deg)": 0.01777750245507308,
        "Eccentricity": 0.0,
        "Inclination(deg)": 53.0,
        "Latitude(deg)": 52.51479491755663,
        "Longitude(deg)": -119.86873615821384,
        "Mean Anomaly(deg)": 97.42289138139247,
        "RAAN(deg)": 239.97354272604886,
        "Satellite Name": "Starlink Shell 1 1060",
        "Satellite Number": 1060,
        "Semi-Major Axis(m)": 6931778.249405717,
        "Time(s)": 510
    },
    {
        "Altitude(m)": 559731.4153144629,
        "Argument of Periapsis(deg)": 0.018126080934584315,
        "Eccentricity": 0.0,
        "Inclination(deg)": 53.0,
        "Latitude(deg)": 52.404163503011624,
        "Longitude(deg)": -118.90019411229008,
        "Mean Anomaly(deg)": 98.04972258494917,
        "RAAN(deg)": 239.97302395597137,
        "Satellite Name": "Starlink Shell 1 1060",
        "Satellite Number": 1060,
        "Semi-Major Axis(m)": 6931778.249405717,
        "Time(s)": 520
    },
    {
        "Altitude(m)": 559704.3303780094,
        "Argument of Periapsis(deg)": 0.018474659414095554,
        "Eccentricity": 0.0,
        "Inclination(deg)": 53.0,
        "Latitude(deg)": 52.284952839461475,
        "Longitude(deg)": -117.93688195345618,
        "Mean Anomaly(deg)": 98.67655378850591,
        "RAAN(deg)": 239.97250518589397,
        "Satellite Name": "Starlink Shell 1 1060",
        "Satellite Number": 1060,
        "Semi-Major Axis(m)": 6931778.249405717,
        "Time(s)": 530
    },
    {
        "Altitude(m)": 559675.2946187698,
        "Argument of Periapsis(deg)": 0.018823237893606792,
        "Eccentricity": 0.0,
        "Inclination(deg)": 53.0,
        "Latitude(deg)": 52.15724486739384,
        "Longitude(deg)": -116.9791342384093,
        "Mean Anomaly(deg)": 99.30338499206262,
        "RAAN(deg)": 239.97198641581647,
        "Satellite Name": "Starlink Shell 1 1060",
        "Satellite Number": 1060,
        "Semi-Major Axis(m)": 6931778.249405717,
        "Time(s)": 540
    },
    {
        "Altitude(m)": 559644.325555143,
        "Argument of Periapsis(deg)": 0.019171816373118027,
        "Eccentricity": 0.0,
        "Inclination(deg)": 53.0,
        "Latitude(deg)": 52.021126235586756,
        "Longitude(deg)": -116.02727094049789,
        "Mean Anomaly(deg)": 99.93021619561931,
        "RAAN(deg)": 239.97146764573898,
        "Satellite Name": "Starlink Shell 1 1060",
        "Satellite Number": 1060,
        "Semi-Major Axis(m)": 6931778.249405717,
        "Time(s)": 550
    },
    {
        "Altitude(m)": 559611.4418801755,
        "Argument of Periapsis(deg)": 0.019520394852629266,
        "Eccentricity": 0.0,
        "Inclination(deg)": 53.0,
        "Latitude(deg)": 51.87668803135563,
        "Longitude(deg)": -115.08159642387102,
        "Mean Anomaly(deg)": 100.55704739917606,
        "RAAN(deg)": 239.97094887566152,
        "Satellite Name": "Starlink Shell 1 1060",
        "Satellite Number": 1060,
        "Semi-Major Axis(m)": 6931778.249405717,
        "Time(s)": 560
    }
]